HULIANWANG DIGUI-33     
1 64286U 25121D   26063.43550538  .00000061  00000+0  10702-3 0  9996
2 64286  86.4965  48.9335 0002081  78.4568 281.6800 13.24425373 36296
HULIANWANG DIGUI-34     
1 64287U 25121E   26063.42800106  .00000039  00000+0  55546-4 0  9996
2 64287  86.4943  48.8681 0002227  74.6017 285.5363 13.24424218 36299
HULIANWANG DIGUI-35     
1 64956U 25159A   26063.47000723  .00000061  00000+0  10817-3 0  9998
2 64956  86.4986 317.8274 0001293  71.2506 288.8768 13.24417081 29268
HULIANWANG DIGUI-36     
1 64957U 25159B   26063.46226153  .00000065  00000+0  11704-3 0  9995
2 64957  86.5006 317.8676 0001371  70.4398 289.6884 13.24419736 29263
HULIANWANG DIGUI-37     
1 64958U 25159C   26063.45471933  .00000058  00000+0  10145-3 0  9993
2 64958  86.4947 317.7327 0001458  68.2505 291.8784 13.24419329 29262
HULIANWANG DIGUI-38     
1 64959U 25159D   26063.44718436  .00000060  00000+0  10565-3 0  9994
2 64959  86.5007 317.8605 0001435  70.7376 289.3914 13.24419499 29265
HULIANWANG DIGUI-39     
1 64960U 25159E   26063.43961719  .00000075  00000+0  13955-3 0  9991
2 64960  86.4982 317.8031 0001441  71.8630 288.2661 13.24419666 29266
HULIANWANG DIGUI-40     
1 65043U 25162A   26063.44141162 -.00000073  00000+0  10900-3 0  9997
2 65043  49.9990 281.6537 0001018  70.8355 289.2627 13.29332123 29411
HULIANWANG DIGUI-41     
1 65044U 25162B   26063.43305950 -.00000059  00000+0  14045-3 0  9992
2 65044  50.0001 281.6275 0001059  70.6427 289.4560 13.29332538 29429
HULIANWANG DIGUI-42     
1 65045U 25162C   26063.42467789 -.00000059  00000+0  14011-3 0  9994
2 65045  49.9966 281.5224 0000993  72.0361 288.0619 13.29331951 29427
HULIANWANG DIGUI-43     
1 65046U 25162D   26063.41630420 -.00000061  00000+0  13562-3 0  9991
2 65046  49.9982 281.5106 0000992  70.9209 289.1770 13.29332975 29429
HULIANWANG DIGUI-44     
1 65047U 25162E   26063.40766396 -.00000066  00000+0  12513-3 0  9993
2 65047  50.0010 281.5134 0000786 350.1835   9.9021 13.29340549 29439
HULIANWANG DIGUI-45     
1 65048U 25162F   26063.47481061 -.00000069  00000+0  11862-3 0  9993
2 65048  50.0040 281.2554 0001049  70.8991 289.1995 13.29332858 29434
HULIANWANG DIGUI-46     
1 65049U 25162G   26063.46645497 -.00000067  00000+0  12216-3 0  9990
2 65049  50.0057 281.2446 0001047  73.3475 286.7512 13.29332807 29438
HULIANWANG DIGUI-47     
1 65050U 25162H   26063.53327763 -.00000072  00000+0  11241-3 0  9996
2 65050  50.0021 280.8695 0001026  74.4804 285.6181 13.29332641 29444
HULIANWANG DIGUI-48     
1 65051U 25162J   26063.44976660 -.00000064  00000+0  13008-3 0  9997
2 65051  50.0032 281.1129 0001015  72.4828 287.6155 13.29332164 29437
