[{"OBJECT_NAME":"HULIANWANG DIGUI-33","OBJECT_ID":"2025-121D","EPOCH":"2026-03-04T10:27:07.664832","MEAN_MOTION":13.24425373,"ECCENTRICITY":0.0002081,"INCLINATION":86.4965,"RA_OF_ASC_NODE":48.9335,"ARG_OF_PERICENTER":78.4568,"MEAN_ANOMALY":281.68,"EPHEMERIS_TYPE":0,"CLASSIFICATION_TYPE":"U","NORAD_CAT_ID":64286,"ELEMENT_SET_NO":999,"REV_AT_EPOCH":3629,"BSTAR":0.00010702,"MEAN_MOTION_DOT":6.1e-7,"MEAN_MOTION_DDOT":0},{"OBJECT_NAME":"HULIANWANG DIGUI-34","OBJECT_ID":"2025-121E","EPOCH":"2026-03-04T10:16:19.291584","MEAN_MOTION":13.24424218,"ECCENTRICITY":0.0002227,"INCLINATION":86.4943,"RA_OF_ASC_NODE":48.8681,"ARG_OF_PERICENTER":74.6017,"MEAN_ANOMALY":285.5363,"EPHEMERIS_TYPE":0,"CLASSIFICATION_TYPE":"U","NORAD_CAT_ID":64287,"ELEMENT_SET_NO":999,"REV_AT_EPOCH":3629,"BSTAR":5.5546e-5,"MEAN_MOTION_DOT":3.9e-7,"MEAN_MOTION_DDOT":0},{"OBJECT_NAME":"HULIANWANG DIGUI-35","OBJECT_ID":"2025-159A","EPOCH":"2026-03-04T11:16:48.624672","MEAN_MOTION":13.24417081,"ECCENTRICITY":0.0001293,"INCLINATION":86.4986,"RA_OF_ASC_NODE":317.8274,"ARG_OF_PERICENTER":71.2506,"MEAN_ANOMALY":288.8768,"EPHEMERIS_TYPE":0,"CLASSIFICATION_TYPE":"U","NORAD_CAT_ID":64956,"ELEMENT_SET_NO":999,"REV_AT_EPOCH":2926,"BSTAR":0.00010817,"MEAN_MOTION_DOT":6.1e-7,"MEAN_MOTION_DDOT":0},{"OBJECT_NAME":"HULIANWANG DIGUI-36","OBJECT_ID":"2025-159B","EPOCH":"2026-03-04T11:05:39.396192","MEAN_MOTION":13.24419736,"ECCENTRICITY":0.0001371,"INCLINATION":86.5006,"RA_OF_ASC_NODE":317.8676,"ARG_OF_PERICENTER":70.4398,"MEAN_ANOMALY":289.6884,"EPHEMERIS_TYPE":0,"CLASSIFICATION_TYPE":"U","NORAD_CAT_ID":64957,"ELEMENT_SET_NO":999,"REV_AT_EPOCH":2926,"BSTAR":0.00011704,"MEAN_MOTION_DOT":6.5e-7,"MEAN_MOTION_DDOT":0},{"OBJECT_NAME":"HULIANWANG DIGUI-37","OBJECT_ID":"2025-159C","EPOCH":"2026-03-04T10:54:47.750112","MEAN_MOTION":13.24419329,"ECCENTRICITY":0.0001458,"INCLINATION":86.4947,"RA_OF_ASC_NODE":317.7327,"ARG_OF_PERICENTER":68.2505,"MEAN_ANOMALY":291.8784,"EPHEMERIS_TYPE":0,"CLASSIFICATION_TYPE":"U","NORAD_CAT_ID":64958,"ELEMENT_SET_NO":999,"REV_AT_EPOCH":2926,"BSTAR":0.00010145,"MEAN_MOTION_DOT":5.8e-7,"MEAN_MOTION_DDOT":0},{"OBJECT_NAME":"HULIANWANG DIGUI-38","OBJECT_ID":"2025-159D","EPOCH":"2026-03-04T10:43:56.728704","MEAN_MOTION":13.24419499,"ECCENTRICITY":0.0001435,"INCLINATION":86.5007,"RA_OF_ASC_NODE":317.8605,"ARG_OF_PERICENTER":70.7376,"MEAN_ANOMALY":289.3914,"EPHEMERIS_TYPE":0,"CLASSIFICATION_TYPE":"U","NORAD_CAT_ID":64959,"ELEMENT_SET_NO":999,"REV_AT_EPOCH":2926,"BSTAR":0.00010565,"MEAN_MOTION_DOT":6.0e-7,"MEAN_MOTION_DDOT":0},{"OBJECT_NAME":"HULIANWANG DIGUI-39","OBJECT_ID":"2025-159E","EPOCH":"2026-03-04T10:33:02.925216","MEAN_MOTION":13.24419666,"ECCENTRICITY":0.0001441,"INCLINATION":86.4982,"RA_OF_ASC_NODE":317.8031,"ARG_OF_PERICENTER":71.863,"MEAN_ANOMALY":288.2661,"EPHEMERIS_TYPE":0,"CLASSIFICATION_TYPE":"U","NORAD_CAT_ID":64960,"ELEMENT_SET_NO":999,"REV_AT_EPOCH":2926,"BSTAR":0.00013955,"MEAN_MOTION_DOT":7.5e-7,"MEAN_MOTION_DDOT":0},{"OBJECT_NAME":"HULIANWANG DIGUI-40","OBJECT_ID":"2025-162A","EPOCH":"2026-03-04T10:35:37.963968","MEAN_MOTION":13.29332123,"ECCENTRICITY":0.0001018,"INCLINATION":49.999,"RA_OF_ASC_NODE":281.6537,"ARG_OF_PERICENTER":70.8355,"MEAN_ANOMALY":289.2627,"EPHEMERIS_TYPE":0,"CLASSIFICATION_TYPE":"U","NORAD_CAT_ID":65043,"ELEMENT_SET_NO":999,"REV_AT_EPOCH":2941,"BSTAR":0.000109,"MEAN_MOTION_DOT":-7.3e-7,"MEAN_MOTION_DDOT":0},{"OBJECT_NAME":"HULIANWANG DIGUI-41","OBJECT_ID":"2025-162B","EPOCH":"2026-03-04T10:23:36.340800","MEAN_MOTION":13.29332538,"ECCENTRICITY":0.0001059,"INCLINATION":50.0001,"RA_OF_ASC_NODE":281.6275,"ARG_OF_PERICENTER":70.6427,"MEAN_ANOMALY":289.456,"EPHEMERIS_TYPE":0,"CLASSIFICATION_TYPE":"U","NORAD_CAT_ID":65044,"ELEMENT_SET_NO":999,"REV_AT_EPOCH":2942,"BSTAR":0.00014045,"MEAN_MOTION_DOT":-5.9e-7,"MEAN_MOTION_DDOT":0},{"OBJECT_NAME":"HULIANWANG DIGUI-42","OBJECT_ID":"2025-162C","EPOCH":"2026-03-04T10:11:32.169696","MEAN_MOTION":13.29331951,"ECCENTRICITY":9.93e-5,"INCLINATION":49.9966,"RA_OF_ASC_NODE":281.5224,"ARG_OF_PERICENTER":72.0361,"MEAN_ANOMALY":288.0619,"EPHEMERIS_TYPE":0,"CLASSIFICATION_TYPE":"U","NORAD_CAT_ID":65045,"ELEMENT_SET_NO":999,"REV_AT_EPOCH":2942,"BSTAR":0.00014011,"MEAN_MOTION_DOT":-5.9e-7,"MEAN_MOTION_DDOT":0},{"OBJECT_NAME":"HULIANWANG DIGUI-43","OBJECT_ID":"2025-162D","EPOCH":"2026-03-04T09:59:28.682880","MEAN_MOTION":13.29332975,"ECCENTRICITY":9.92e-5,"INCLINATION":49.9982,"RA_OF_ASC_NODE":281.5106,"ARG_OF_PERICENTER":70.9209,"MEAN_ANOMALY":289.177,"EPHEMERIS_TYPE":0,"CLASSIFICATION_TYPE":"U","NORAD_CAT_ID":65046,"ELEMENT_SET_NO":999,"REV_AT_EPOCH":2942,"BSTAR":0.00013562,"MEAN_MOTION_DOT":-6.1e-7,"MEAN_MOTION_DDOT":0},{"OBJECT_NAME":"HULIANWANG DIGUI-44","OBJECT_ID":"2025-162E","EPOCH":"2026-03-04T09:47:02.166144","MEAN_MOTION":13.29340549,"ECCENTRICITY":7.86e-5,"INCLINATION":50.001,"RA_OF_ASC_NODE":281.5134,"ARG_OF_PERICENTER":350.1835,"MEAN_ANOMALY":9.9021,"EPHEMERIS_TYPE":0,"CLASSIFICATION_TYPE":"U","NORAD_CAT_ID":65047,"ELEMENT_SET_NO":999,"REV_AT_EPOCH":2943,"BSTAR":0.00012513,"MEAN_MOTION_DOT":-6.6e-7,"MEAN_MOTION_DDOT":0},{"OBJECT_NAME":"HULIANWANG DIGUI-45","OBJECT_ID":"2025-162F","EPOCH":"2026-03-04T11:23:43.636704","MEAN_MOTION":13.29332858,"ECCENTRICITY":0.0001049,"INCLINATION":50.004,"RA_OF_ASC_NODE":281.2554,"ARG_OF_PERICENTER":70.8991,"MEAN_ANOMALY":289.1995,"EPHEMERIS_TYPE":0,"CLASSIFICATION_TYPE":"U","NORAD_CAT_ID":65048,"ELEMENT_SET_NO":999,"REV_AT_EPOCH":2943,"BSTAR":0.00011862,"MEAN_MOTION_DOT":-6.9e-7,"MEAN_MOTION_DDOT":0},{"OBJECT_NAME":"HULIANWANG DIGUI-46","OBJECT_ID":"2025-162G","EPOCH":"2026-03-04T11:11:41.709408","MEAN_MOTION":13.29332807,"ECCENTRICITY":0.0001047,"INCLINATION":50.0057,"RA_OF_ASC_NODE":281.2446,"ARG_OF_PERICENTER":73.3475,"MEAN_ANOMALY":286.7512,"EPHEMERIS_TYPE":0,"CLASSIFICATION_TYPE":"U","NORAD_CAT_ID":65049,"ELEMENT_SET_NO":999,"REV_AT_EPOCH":2943,"BSTAR":0.00012216,"MEAN_MOTION_DOT":-6.7e-7,"MEAN_MOTION_DDOT":0},{"OBJECT_NAME":"HULIANWANG DIGUI-47","OBJECT_ID":"2025-162H","EPOCH":"2026-03-04T12:47:55.187232","MEAN_MOTION":13.29332641,"ECCENTRICITY":0.0001026,"INCLINATION":50.0021,"RA_OF_ASC_NODE":280.8695,"ARG_OF_PERICENTER":74.4804,"MEAN_ANOMALY":285.6181,"EPHEMERIS_TYPE":0,"CLASSIFICATION_TYPE":"U","NORAD_CAT_ID":65050,"ELEMENT_SET_NO":999,"REV_AT_EPOCH":2944,"BSTAR":0.00011241,"MEAN_MOTION_DOT":-7.2e-7,"MEAN_MOTION_DDOT":0},{"OBJECT_NAME":"HULIANWANG DIGUI-48","OBJECT_ID":"2025-162J","EPOCH":"2026-03-04T10:47:39.834240","MEAN_MOTION":13.29332164,"ECCENTRICITY":0.0001015,"INCLINATION":50.0032,"RA_OF_ASC_NODE":281.1129,"ARG_OF_PERICENTER":72.4828,"MEAN_ANOMALY":287.6155,"EPHEMERIS_TYPE":0,"CLASSIFICATION_TYPE":"U","NORAD_CAT_ID":65051,"ELEMENT_SET_NO":999,"REV_AT_EPOCH":2943,"BSTAR":0.00013008,"MEAN_MOTION_DOT":-6.4e-7,"MEAN_MOTION_DDOT":0}]
